# From MPEC 2023-BF4
17P/Holmes,e,19.0282,326.6275,24.5624,3.637936,0.1420436,0.42748317,100.8576,01/31.0/2023,2000,g 10.0,6.0
# From MPEC 2023-BF4
19P/Borrelly,e,29.3056,74.2342,351.9372,3.606398,0.1439109,0.63779264,52.2598,01/31.0/2023,2000,g  4.5,10.0
# From MPEC 2021-F20
21P/Giacobini-Zinner,e,32.0592,195.3454,172.8912,3.494786,0.1508597,0.71125665,241.6676,01/31.0/2023,2000,g 11.4,4.0
# From MPEC 2023-BF4
22P/Kopff,e,4.7413,120.7819,163.0194,3.441394,0.1543840,0.54931082,49.2234,01/31.0/2023,2000,g  3.0,10.4
# From MPC 14747
23P/Brorsen-Metcalf,e,19.2328,312.0360,129.1535,16.94328,0.0141321,0.97209060,0.0000,08/09.6764/1989,2000,g 10.0,6.0
# From MPC110085
24P/Schaumasse,e,11.5045,78.3387,58.4409,4.055165,0.1206956,0.70771310,230.3851,01/31.0/2023,2000,g  6.5,14.0
# From MPEC 2022-Y15
26P/Grigg-Skjellerup,e,22.4328,211.5403,2.1494,3.015288,0.1882396,0.64047638,298.1864,01/31.0/2023,2000,g 12.0,16.0
# From MPC 78188
27P/Crommelin,e,29.3544,250.6667,195.8611,9.180873,0.0354306,0.91899040,149.1025,01/31.0/2023,2000,g 12.0,8.0
# From MPEC 2023-B57
28P/Neujmin,e,14.3111,346.3397,347.4626,6.981179,0.0534332,0.77361991,36.8792,01/31.0/2023,2000,g  8.5,6.0
# From MPEC 2023-BF4
29P/Schwassmann-Wachmann,e,9.3637,312.3964,51.0079,6.047620,0.0662716,0.04472406,91.5172,01/31.0/2023,2000,g  4.0,4.0
# From MPEC 2022-TA0
30P/Reinmuth,e,8.0637,117.5429,9.4655,3.730890,0.1367683,0.51624224,282.8710,01/31.0/2023,2000,g  9.5,6.0
# From MPEC 2021-F20
31P/Schwassmann-Wachmann,e,4.5483,114.1048,17.8997,4.235423,0.1130730,0.19233920,147.8543,01/31.0/2023,2000,g 13.1,4.0
# From MPEC 2022-K19
32P/ComasSola,e,9.9063,54.6087,54.7967,4.555125,0.1013803,0.55685463,314.8457,01/31.0/2023,2000,g  6.5,8.0
# From MPEC 2013-O31
33P/Daniel,e,22.2942,66.2996,20.4625,4.088146,0.1192379,0.45179885,282.4178,01/31.0/2023,2000,g 10.0,12.0
# From  15, 452
35P/Herschel-Rigollet,e,65.247,356.716,28.979,28.5464,0.006462,0.9743778,0.000,02/11.3266/2092,2000,g  9.0,4.0
# From MPEC 2022-ED3
36P/Whipple,e,9.9529,181.8408,201.0387,4.137112,0.1171273,0.26908783,113.9735,01/31.0/2023,2000,g  8.5,6.0
# From MPEC 2021-F20
37P/Forbes,e,8.9516,314.5668,330.1027,3.461743,0.1530248,0.53308536,265.2452,01/31.0/2023,2000,g 13.8,4.0
# From MPEC 2018-S50
38P/Stephan-Oterma,e,18.3906,77.9024,359.5046,11.23815,0.0261614,0.85944625,40.3178,01/31.0/2023,2000,g  3.5,12.0
# From MPEC 2022-A21
39P/Oterma,e,1.5435,297.3308,100.7743,7.279042,0.0501872,0.21570006,352.4904,01/31.0/2023,2000,g  7.0,6.0
# From MPC100283
40P/Vaisala,e,11.4643,133.6937,47.4329,4.955363,0.0893492,0.63071687,268.9420,01/31.0/2023,2000,g  5.5,12.0
# From MPC105240
41P/Tuttle-Giacobini-Kresak,e,9.2207,140.9882,62.2084,3.087910,0.1816382,0.65991608,25.3556,01/31.0/2023,2000,g 10.0,16.0
# From MPC 94283
42P/Neujmin,e,3.9910,150.1756,147.2274,4.873975,0.0915965,0.58461995,261.1133,01/31.0/2023,2000,g 13.0,6.0
# From MPEC 2022-C56
43P/Wolf-Harrington,e,9.3315,244.0302,224.0747,4.320428,0.1097524,0.43523777,259.2289,01/31.0/2023,2000,g  8.0,6.0
# From MPEC 2023-BF4
44P/Reinmuth,e,5.8967,286.4294,58.0446,3.689198,0.1390933,0.42745528,39.3566,01/31.0/2023,2000,g  8.3,6.0
# From MPEC 2022-O01
45P/Honda-Mrkos-Pajdusakova,e,4.3229,87.6929,327.9198,3.055644,0.1845227,0.81766253,51.4876,01/31.0/2023,2000,g 13.5,8.0
# From MPEC 2021-O56
46P/Wirtanen,e,11.7493,82.1616,356.3271,3.091678,0.1813063,0.65871079,273.9644,01/31.0/2023,2000,g 14.0,6.0
# From MPEC 2022-HC2
47P/Ashbrook-Jackson,e,13.0405,356.9195,357.7534,4.121969,0.1177733,0.31871334,242.1937,01/31.0/2023,2000,g  1.0,11.2
# From MPEC 2021-F20
48P/Johnson,e,12.2008,110.0937,216.7407,3.501043,0.1504554,0.42716535,245.4478,01/31.0/2023,2000,g 12.4,4.0
# From MPEC 2021-F20
49P/Arend-Rigaux,e,19.0522,118.7917,332.9201,3.569428,0.1461525,0.59857568,242.9511,01/31.0/2023,2000,g 13.4,4.0
# From MPEC 2015-S97
50P/Arend,e,19.1009,355.1750,49.3481,4.087481,0.1192670,0.52961310,304.1999,01/31.0/2023,2000,g  9.5,6.0
# From MPEC 2022-UE6
51P/Harrington,e,5.4262,83.6626,269.2635,3.707874,0.1380437,0.54351110,16.8007,01/31.0/2023,2000,g 10.0,8.0
# From NK 3014
51P-A/Harrington,e,5.4261,83.6628,269.2353,3.709467,0.1379548,0.54373549,16.4367,01/31.0/2023,2000,g 10.0,8.0
# From MPEC 2022-X67
51P-D/Harrington,e,5.4266,83.6511,269.2816,3.708243,0.1380231,0.54364212,16.7397,01/31.0/2023,2000,g 16.0,8.0
# From MPEC 2022-L66
52P/Harrington-Abell,e,10.2310,336.8293,139.5608,3.863819,0.1297714,0.54027361,62.6554,01/31.0/2023,2000,g 13.5,6.0
# From MPC100283
53P/Van Biesbroeck,e,6.6084,148.8204,134.4982,5.432162,0.0778476,0.55056316,192.1474,01/31.0/2023,2000,g  7.7,4.8
# From MPC 89011
54P/de Vico-Swift-NEAT,e,6.0643,358.8134,1.8859,3.788531,0.1336589,0.42646433,282.2482,01/31.0/2023,2000,g  9.0,4.0
# From MPC 31070
55P/Tempel-Tuttle,e,162.5019,235.4193,172.4738,10.35645,0.0295725,0.90535436,270.3256,01/31.0/2023,2000,g  9.0,4.0
# From MPC101100
56P/Slaughter-Burnham,e,8.1597,345.9825,44.0388,5.066052,0.0864370,0.50849291,205.9797,01/31.0/2023,2000,g  8.5,6.0
# From MPEC 2022-YN2
57P/duToit-Neujmin-Delporte,e,2.8524,188.7763,115.1509,3.443988,0.1542097,0.50086410,72.6012,01/31.0/2023,2000,g 12.5,6.0
# From MPEC 2021-O56
58P/Jackson-Neujmin,e,13.1066,159.0748,200.5388,4.088188,0.1192361,0.66273168,116.6361,01/31.0/2023,2000,g 15.5,6.0
# From MPEC 2023-A50
59P/Kearns-Kwee,e,9.3441,312.7926,127.5180,4.483302,0.1038262,0.47611814,165.7561,01/31.0/2023,2000,g  7.0,6.0
# From MPEC 2021-F20
60P/Tsuchinshan,e,3.5805,267.4469,216.9833,3.526035,0.1488587,0.53359613,225.7212,01/31.0/2023,2000,g 11.5,6.0
# From MPEC 2023-BF4
61P/Shajn-Schaldach,e,5.9995,162.9623,221.6459,3.689831,0.1390575,0.42387908,13.7992,01/31.0/2023,2000,g  6.0,10.0
# From MPC109147
62P/Tsuchinshan,e,4.7360,68.6944,47.3244,3.369452,0.1593548,0.62501965,307.7318,01/31.0/2023,2000,g  8.0,10.0
# From MPC 84320
63P/Wild,e,19.7230,358.0137,168.9721,5.613619,0.0741037,0.64977123,266.9978,01/31.0/2023,2000,g 10.5,6.0
# From MPEC 2023-A50
64P/Swift-Gehrels,e,8.9490,299.9103,97.1568,4.452581,0.1049026,0.68866392,162.3318,01/31.0/2023,2000,g  9.5,12.0
# From MPEC 2023-BF4
65P/Gunn,e,9.1758,61.9863,213.8772,3.888970,0.1285145,0.24845388,248.4358,01/31.0/2023,2000,g  5.0,6.0
# From MPEC 2021-F20
66P/duToit,e,18.6385,21.7771,257.4868,6.070389,0.0658991,0.78584416,113.2890,01/31.0/2023,2000,g 15.0,4.0
# From MPEC 2023-A50
67P/Churyumov-Gerasimenko,e,3.8719,36.3288,22.1499,3.457221,0.1533251,0.64987620,69.7421,01/31.0/2023,2000,g 11.0,4.0
# From MPEC 2022-H04
68P/Klemola,e,11.1114,175.0463,153.2474,4.959092,0.0892485,0.63719507,105.2250,01/31.0/2023,2000,g 12.7,4.0
# From MPEC 2023-A50
69P/Taylor,e,22.0461,104.8066,343.3943,3.884377,0.1287425,0.41386519,182.0939,01/31.0/2023,2000,g  9.5,12.0
# From MPEC 2022-P82
70P/Kojima,e,6.5980,119.2568,1.7969,3.677501,0.1397574,0.45392486,63.4396,01/31.0/2023,2000,g 11.0,6.0
# From MPEC 2022-M88
71P/Clark,e,9.4382,59.3936,209.0643,3.138173,0.1772918,0.49370975,1.4543,01/31.0/2023,2000,g  9.8,6.0
# From MPC 89011
72P/Denning-Fujikawa,e,10.9487,26.7017,346.7313,4.307209,0.1102580,0.81866039,345.0179,01/31.0/2023,2000,g 17.5,10.0
# From MPEC 2023-BF4
73P/Schwassmann-Wachmann,e,11.2286,69.6010,199.5041,3.093289,0.1811646,0.68546790,28.6598,01/31.0/2023,2000,g 11.5,6.0
# From MPC106348
73P-T/Schwassmann-Wachmann,e,11.2306,69.6038,199.4845,3.094751,0.1810363,0.68566257,28.3833,01/31.0/2023,2000,g 11.5,6.0
# From MPEC 2022-P18
73P-BU/Schwassmann-Wachmann,e,11.0703,70.6676,199.8890,2.876966,0.2019771,0.66619544,32.1363,01/31.0/2023,2000,g 19.0,4.0
# From MPEC 2022-X67
73P-BV/Schwassmann-Wachmann,e,11.2445,69.4797,199.3803,3.146658,0.1765752,0.69037901,28.0758,01/31.0/2023,2000,g 19.0,4.0
# From MPEC 2022-R15
73P-BW/Schwassmann-Wachmann,e,11.6028,67.3072,198.7484,4.593766,0.1001039,0.78220006,15.8693,01/31.0/2023,2000,g 18.2,4.0
# From MPEC 2023-A50
73P-BX/Schwassmann-Wachmann,e,11.2602,69.4728,199.3985,3.125923,0.1783350,0.68832899,28.2960,01/31.0/2023,2000,g 17.5,4.0
# From MPEC 2022-R15
73P-BY/Schwassmann-Wachmann,e,11.1989,69.7584,199.4778,3.035132,0.1863965,0.68007446,29.7679,01/31.0/2023,2000,g 17.4,4.0
# From MPEC 2023-A50
74P/Smirnova-Chernykh,e,6.3422,54.7616,139.5161,4.635256,0.0987628,0.08287173,171.7894,01/31.0/2023,2000,g  5.0,6.0
# From MPEC 2022-K19
76P/West-Kohoutek-Ikemura,e,30.4827,84.1042,359.9344,3.470541,0.1524433,0.53874794,181.8018,01/31.0/2023,2000,g  8.0,12.0
# From MPEC 2023-BF4
77P/Longmore,e,24.3190,14.7682,196.7372,3.623926,0.1428680,0.35187574,351.1223,01/31.0/2023,2000,g  7.0,8.0
# From MPEC 2021-O56
78P/Gehrels,e,6.2570,210.5182,192.6466,3.736929,0.1364369,0.46291663,190.7118,01/31.0/2023,2000,g  5.5,8.0
# From MPC 94675
79P/du Toit-Hartley,e,3.1487,280.5198,281.7872,2.943630,0.1951548,0.61913643,312.6999,01/31.0/2023,2000,g 16.0,4.0
# From MPEC 2014-P41
80P/Peters-Hartley,e,29.9235,259.7962,339.2453,4.023372,0.1221290,0.59851547,6.4898,01/31.0/2023,2000,g  9.0,4.0
# From MPEC 2023-BF4
81P/Wild,e,3.2365,136.0983,41.6289,3.454275,0.1535213,0.53725920,7.1204,01/31.0/2023,2000,g  7.0,6.0
# From MPC133426
82P/Gehrels,e,1.1292,239.3224,226.3588,4.133245,0.1172917,0.12204693,197.4261,01/31.0/2023,2000,g 15.0,4.0
# From MPEC 2020-FB5
84P/Giclas,e,7.5502,108.1376,281.6359,3.549865,0.1473623,0.51608454,143.0366,01/31.0/2023,2000,g  9.5,8.0
# From MPEC 2022-QD9
86P/Wild,e,15.4738,72.3315,179.5415,3.604045,0.1440518,0.37244100,51.4384,01/31.0/2023,2000,g 11.0,6.0
# From MPEC 2020-SI8
87P/Bus,e,4.3332,183.5691,32.8931,3.579301,0.1455482,0.41167568,132.2122,01/31.0/2023,2000,g  7.2,10.0
# From MPEC 2022-ED3
88P/Howell,e,4.3821,56.6698,235.9390,3.106205,0.1800358,0.56365732,154.2542,01/31.0/2023,2000,g 11.0,6.0
# From MPC100283
89P/Russell,e,12.0718,41.3470,250.3996,3.753439,0.1355377,0.40812000,302.9985,01/31.0/2023,2000,g 11.5,6.0
# From MPEC 2022-K19
90P/Gehrels,e,9.6512,13.2054,29.0658,6.051136,0.0662138,0.51103631,135.6891,01/31.0/2023,2000,g  8.5,6.0
# From MPEC 2021-S45
91P/Russell,e,14.2308,246.4278,356.3404,3.902376,0.1278528,0.33475587,103.5331,01/31.0/2023,2000,g  7.5,6.0
